[{"OBJECT_NAME":"STARLINK-5875","OBJECT_ID":"2023-094D","EPOCH":"2026-03-09T06:34:47.217504","MEAN_MOTION":15.02533884,"ECCENTRICITY":0.00014002,"INCLINATION":43.0057,"RA_OF_ASC_NODE":32.9178,"ARG_OF_PERICENTER":270.3895,"MEAN_ANOMALY":89.6787,"EPHEMERIS_TYPE":0,"CLASSIFICATION_TYPE":"U","NORAD_CAT_ID":57221,"ELEMENT_SET_NO":999,"REV_AT_EPOCH":14705,"BSTAR":3.6773469e-5,"MEAN_MOTION_DOT":2.93e-6,"MEAN_MOTION_DDOT":0},{"OBJECT_NAME":"CZ-6A DEB","OBJECT_ID":"2022-151ABN","EPOCH":"2026-03-09T19:31:34.351392","MEAN_MOTION":14.91930226,"ECCENTRICITY":0.0114204,"INCLINATION":98.6988,"RA_OF_ASC_NODE":184.3801,"ARG_OF_PERICENTER":80.6585,"MEAN_ANOMALY":280.7523,"EPHEMERIS_TYPE":0,"CLASSIFICATION_TYPE":"U","NORAD_CAT_ID":56246,"ELEMENT_SET_NO":999,"REV_AT_EPOCH":15979,"BSTAR":0.001440011,"MEAN_MOTION_DOT":0.00016487,"MEAN_MOTION_DDOT":0}]
